[{"OBJECT_NAME":"HTV-X1","OBJECT_ID":"2025-241A","EPOCH":"2026-03-04T20:48:04.408416","MEAN_MOTION":15.48447334,"ECCENTRICITY":0.0008177,"INCLINATION":51.6315,"RA_OF_ASC_NODE":96.2009,"ARG_OF_PERICENTER":157.5272,"MEAN_ANOMALY":202.6076,"EPHEMERIS_TYPE":0,"CLASSIFICATION_TYPE":"U","NORAD_CAT_ID":66174,"ELEMENT_SET_NO":999,"REV_AT_EPOCH":55546,"BSTAR":0.00017477,"MEAN_MOTION_DOT":9.014e-5,"MEAN_MOTION_DDOT":0},{"OBJECT_NAME":"SZ-21 MODULE","OBJECT_ID":"2025-246C","EPOCH":"2026-03-04T12:48:09.680832","MEAN_MOTION":15.68084352,"ECCENTRICITY":0.0001435,"INCLINATION":41.4731,"RA_OF_ASC_NODE":235.0908,"ARG_OF_PERICENTER":286.9627,"MEAN_ANOMALY":73.1057,"EPHEMERIS_TYPE":0,"CLASSIFICATION_TYPE":"U","NORAD_CAT_ID":66515,"ELEMENT_SET_NO":999,"REV_AT_EPOCH":1726,"BSTAR":0.00041049,"MEAN_MOTION_DOT":0.00046935,"MEAN_MOTION_DDOT":0},{"OBJECT_NAME":"SHENZHOU-22","OBJECT_ID":"2025-272A","EPOCH":"2026-03-04T18:54:23.016096","MEAN_MOTION":15.60402079,"ECCENTRICITY":0.0006814,"INCLINATION":41.4657,"RA_OF_ASC_NODE":237.9826,"ARG_OF_PERICENTER":244.257,"MEAN_ANOMALY":115.7565,"EPHEMERIS_TYPE":0,"CLASSIFICATION_TYPE":"U","NORAD_CAT_ID":66645,"ELEMENT_SET_NO":999,"REV_AT_EPOCH":26841,"BSTAR":0.00025733,"MEAN_MOTION_DOT":0.00021476,"MEAN_MOTION_DDOT":0},{"OBJECT_NAME":"SOYUZ-MS 28","OBJECT_ID":"2025-275A","EPOCH":"2026-03-04T20:48:04.408416","MEAN_MOTION":15.48447334,"ECCENTRICITY":0.0008177,"INCLINATION":51.6315,"RA_OF_ASC_NODE":96.2009,"ARG_OF_PERICENTER":157.5272,"MEAN_ANOMALY":202.6076,"EPHEMERIS_TYPE":0,"CLASSIFICATION_TYPE":"U","NORAD_CAT_ID":66664,"ELEMENT_SET_NO":999,"REV_AT_EPOCH":55558,"BSTAR":0.00017477,"MEAN_MOTION_DOT":9.014e-5,"MEAN_MOTION_DDOT":0},{"OBJECT_NAME":"DUPLEX","OBJECT_ID":"1998-067XS","EPOCH":"2026-03-04T09:12:56.728224","MEAN_MOTION":15.55826494,"ECCENTRICITY":0.00020746,"INCLINATION":51.6284,"RA_OF_ASC_NODE":95.9816,"ARG_OF_PERICENTER":91.8511,"MEAN_ANOMALY":268.2718,"EPHEMERIS_TYPE":0,"CLASSIFICATION_TYPE":"U","NORAD_CAT_ID":66906,"ELEMENT_SET_NO":999,"REV_AT_EPOCH":1430,"BSTAR":0.00060283877,"MEAN_MOTION_DOT":0.00042212,"MEAN_MOTION_DDOT":0},{"OBJECT_NAME":"ISS OBJECT XT","OBJECT_ID":"1998-067XT","EPOCH":"2026-03-04T07:03:20.165760","MEAN_MOTION":15.67417551,"ECCENTRICITY":0.000464,"INCLINATION":51.6246,"RA_OF_ASC_NODE":93.1197,"ARG_OF_PERICENTER":42.9722,"MEAN_ANOMALY":317.1636,"EPHEMERIS_TYPE":0,"CLASSIFICATION_TYPE":"U","NORAD_CAT_ID":66907,"ELEMENT_SET_NO":999,"REV_AT_EPOCH":1433,"BSTAR":0.0016714221,"MEAN_MOTION_DOT":0.00188353,"MEAN_MOTION_DDOT":0},{"OBJECT_NAME":"ISS OBJECT XU","OBJECT_ID":"1998-067XU","EPOCH":"2026-03-04T07:01:15.985632","MEAN_MOTION":15.67514512,"ECCENTRICITY":0.0004676,"INCLINATION":51.6245,"RA_OF_ASC_NODE":93.1068,"ARG_OF_PERICENTER":47.0078,"MEAN_ANOMALY":313.1309,"EPHEMERIS_TYPE":0,"CLASSIFICATION_TYPE":"U","NORAD_CAT_ID":66908,"ELEMENT_SET_NO":999,"REV_AT_EPOCH":1433,"BSTAR":0.0016844747,"MEAN_MOTION_DOT":0.00190633,"MEAN_MOTION_DDOT":0},{"OBJECT_NAME":"SILVERSAT","OBJECT_ID":"1998-067XV","EPOCH":"2026-03-04T05:44:31.310592","MEAN_MOTION":15.69945816,"ECCENTRICITY":0.00054898,"INCLINATION":51.6239,"RA_OF_ASC_NODE":92.7506,"ARG_OF_PERICENTER":43.4066,"MEAN_ANOMALY":316.7363,"EPHEMERIS_TYPE":0,"CLASSIFICATION_TYPE":"U","NORAD_CAT_ID":66909,"ELEMENT_SET_NO":999,"REV_AT_EPOCH":1433,"BSTAR":0.0018132061,"MEAN_MOTION_DOT":0.00227913,"MEAN_MOTION_DDOT":0},{"OBJECT_NAME":"ISS OBJECT XW","OBJECT_ID":"1998-067XW","EPOCH":"2026-03-04T14:32:16.951200","MEAN_MOTION":15.67030615,"ECCENTRICITY":0.0004962,"INCLINATION":51.6244,"RA_OF_ASC_NODE":91.4429,"ARG_OF_PERICENTER":57.7453,"MEAN_ANOMALY":302.4024,"EPHEMERIS_TYPE":0,"CLASSIFICATION_TYPE":"U","NORAD_CAT_ID":66910,"ELEMENT_SET_NO":999,"REV_AT_EPOCH":1438,"BSTAR":0.0013842,"MEAN_MOTION_DOT":0.00152805,"MEAN_MOTION_DDOT":0},{"OBJECT_NAME":"ISS OBJECT XX","OBJECT_ID":"1998-067XX","EPOCH":"2026-03-04T13:31:54.149952","MEAN_MOTION":15.72667197,"ECCENTRICITY":0.0007046,"INCLINATION":51.6211,"RA_OF_ASC_NODE":90.4017,"ARG_OF_PERICENTER":52.8119,"MEAN_ANOMALY":307.3522,"EPHEMERIS_TYPE":0,"CLASSIFICATION_TYPE":"U","NORAD_CAT_ID":66911,"ELEMENT_SET_NO":999,"REV_AT_EPOCH":1438,"BSTAR":0.00183,"MEAN_MOTION_DOT":0.00259038,"MEAN_MOTION_DDOT":0},{"OBJECT_NAME":"ISS OBJECT XY","OBJECT_ID":"1998-067XY","EPOCH":"2026-03-04T18:53:01.467456","MEAN_MOTION":15.62666927,"ECCENTRICITY":0.0002996,"INCLINATION":51.6265,"RA_OF_ASC_NODE":91.9178,"ARG_OF_PERICENTER":61.6316,"MEAN_ANOMALY":298.498,"EPHEMERIS_TYPE":0,"CLASSIFICATION_TYPE":"U","NORAD_CAT_ID":66912,"ELEMENT_SET_NO":999,"REV_AT_EPOCH":1438,"BSTAR":0.0011105,"MEAN_MOTION_DOT":0.00102241,"MEAN_MOTION_DDOT":0},{"OBJECT_NAME":"ISS OBJECT XZ","OBJECT_ID":"1998-067XZ","EPOCH":"2026-03-04T07:37:01.846272","MEAN_MOTION":15.5133766,"ECCENTRICITY":0.00094914,"INCLINATION":51.6304,"RA_OF_ASC_NODE":98.5346,"ARG_OF_PERICENTER":167.7937,"MEAN_ANOMALY":192.3284,"EPHEMERIS_TYPE":0,"CLASSIFICATION_TYPE":"U","NORAD_CAT_ID":67683,"ELEMENT_SET_NO":999,"REV_AT_EPOCH":395,"BSTAR":0.00087420501,"MEAN_MOTION_DOT":0.00052289,"MEAN_MOTION_DDOT":0},{"OBJECT_NAME":"GXIBA-1","OBJECT_ID":"1998-067YA","EPOCH":"2026-03-04T08:41:37.516992","MEAN_MOTION":15.53373762,"ECCENTRICITY":0.0010966,"INCLINATION":51.6304,"RA_OF_ASC_NODE":98.0837,"ARG_OF_PERICENTER":158.3351,"MEAN_ANOMALY":201.8106,"EPHEMERIS_TYPE":0,"CLASSIFICATION_TYPE":"U","NORAD_CAT_ID":67684,"ELEMENT_SET_NO":999,"REV_AT_EPOCH":396,"BSTAR":0.0015927729,"MEAN_MOTION_DOT":0.00103687,"MEAN_MOTION_DDOT":0},{"OBJECT_NAME":"CORAL","OBJECT_ID":"1998-067YB","EPOCH":"2026-03-04T07:32:17.590272","MEAN_MOTION":15.51642058,"ECCENTRICITY":0.00113986,"INCLINATION":51.6305,"RA_OF_ASC_NODE":98.5128,"ARG_OF_PERICENTER":164.0725,"MEAN_ANOMALY":196.0625,"EPHEMERIS_TYPE":0,"CLASSIFICATION_TYPE":"U","NORAD_CAT_ID":67685,"ELEMENT_SET_NO":999,"REV_AT_EPOCH":395,"BSTAR":0.00095212079,"MEAN_MOTION_DOT":0.00057704,"MEAN_MOTION_DDOT":0},{"OBJECT_NAME":"ISS OBJECT YC","OBJECT_ID":"1998-067YC","EPOCH":"2026-03-04T07:26:44.045664","MEAN_MOTION":15.52065011,"ECCENTRICITY":0.00077446,"INCLINATION":51.6308,"RA_OF_ASC_NODE":98.4887,"ARG_OF_PERICENTER":132.0357,"MEAN_ANOMALY":228.1293,"EPHEMERIS_TYPE":0,"CLASSIFICATION_TYPE":"U","NORAD_CAT_ID":67686,"ELEMENT_SET_NO":999,"REV_AT_EPOCH":395,"BSTAR":0.0011372356,"MEAN_MOTION_DOT":0.00070087,"MEAN_MOTION_DDOT":0},{"OBJECT_NAME":"LEOPARD","OBJECT_ID":"1998-067YD","EPOCH":"2026-03-04T07:34:28.800768","MEAN_MOTION":15.51484974,"ECCENTRICITY":0.00077812,"INCLINATION":51.6306,"RA_OF_ASC_NODE":98.5236,"ARG_OF_PERICENTER":136.2386,"MEAN_ANOMALY":223.9221,"EPHEMERIS_TYPE":0,"CLASSIFICATION_TYPE":"U","NORAD_CAT_ID":67687,"ELEMENT_SET_NO":999,"REV_AT_EPOCH":387,"BSTAR":0.00094368384,"MEAN_MOTION_DOT":0.00056781,"MEAN_MOTION_DDOT":0},{"OBJECT_NAME":"ISS OBJECT YE","OBJECT_ID":"1998-067YE","EPOCH":"2026-03-04T12:07:23.752992","MEAN_MOTION":15.51890022,"ECCENTRICITY":0.00077863,"INCLINATION":51.6315,"RA_OF_ASC_NODE":97.5383,"ARG_OF_PERICENTER":134.731,"MEAN_ANOMALY":225.4314,"EPHEMERIS_TYPE":0,"CLASSIFICATION_TYPE":"U","NORAD_CAT_ID":67688,"ELEMENT_SET_NO":999,"REV_AT_EPOCH":390,"BSTAR":0.0010599088,"MEAN_MOTION_DOT":0.00064836,"MEAN_MOTION_DDOT":0}]
